
BRITE-CA1 (TORONTO)     
1 40020U 14033L   25019.93324421  .00003274  00000+0  51501-3 0  9992
2 40020  97.9030 156.0557 0082119 119.1877 241.7577 14.70940633566715
DUCHIFAT-1              
1 40021U 14033M   25019.91694917  .00032972  00000+0  15466-2 0  9997
2 40021  98.1014  22.9561 0012720  83.6308 276.6373 15.19524907576899
NANOSATC-BR1            
1 40024U 14033Q   25019.92175962  .00023035  00000+0  13238-2 0  9990
2 40024  98.0848   8.7391 0006318 139.6055 220.5644 15.12489396575901
QB50P1                  
1 40025U 14033R   25019.87204739  .00015949  00000+0  10813-2 0  9991
2 40025  98.0703 355.1661 0011702 162.3049 197.8587 15.06486345575423
QB50P2                  
1 40032U 14033Y   25019.85589860  .00014691  00000+0  10447-2 0  9994
2 40032  98.0273 345.2258 0010542 111.3389 248.8962 15.04732066575186
PERSEUS-M2              
1 40037U 14033AD  25019.85240661  .00004307  00000+0  42303-3 0  9992
2 40037  97.9445 317.9022 0011964 192.8050 167.2867 14.92662373574628
PERSEUS-M1              
1 40039U 14033AF  25019.76704106  .00004892  00000+0  48073-3 0  9992
2 40039  97.9209 313.2247 0011827 191.8449 168.2493 14.92571472573966
POLYITAN-1              
1 40042U 14033AJ  25019.88311280  .00025312  00000+0  14622-2 0  9998
2 40042  98.0942   0.8815 0012873 115.7068 244.5491 15.12227546575477
TIGRISAT                
1 40043U 14033AK  25019.93092791  .00005217  00000+0  65515-3 0  9998
2 40043  97.7141 180.0159 0052033 317.3666  42.3514 14.81587271569521
AEROCUBE 6A             
1 40045U 14033AM  25019.92875268  .00013082  00000+0  13648-2 0  9995
2 40045  97.6780 191.8778 0044941 287.8017  71.8300 14.89117727569981
AEROCUBE 6B             
1 40046U 14033AN  25019.42414570  .00011860  00000+0  12081-2 0  9998
2 40046  97.6761 190.3196 0043389 283.7481  75.8909 14.90150451569986
CANX-4                  
1 40055U 14034C   25019.64833942  .00002881  00000+0  39204-3 0  9991
2 40055  98.3762 229.4693 0012332 215.4199 144.6194 14.79553859568541
CANX-5                  
1 40056U 14034D   25019.65197663  .00002887  00000+0  39267-3 0  9991
2 40056  98.3765 229.4876 0012328 215.6644 144.3744 14.79565779559351
UKUBE-1                 
1 40074U 14037F   25019.81150385  .00017745  00000+0  13883-2 0  9996
2 40074  98.3737 330.4219 0002845  63.4658 296.6855 15.01116806571190
BRITE-PL2 (HEWELIUSZ)   
1 40119U 14049B   25019.85297460  .00004757  00000+0  48181-3 0  9998
2 40119  97.8849 124.9886 0015366  15.0109 345.1562 14.91337046564848
AEROCUBE 5C             
1 40965U 15058B   25019.44348042  .00008064  00000+0  68063-3 0  9992
2 40965  64.7689  55.9109 0182945 243.7681 114.4525 14.86624375289147
AEROCUBE 7              
1 40966U 15058C   25019.46188017  .00009481  00000+0  75589-3 0  9994
2 40966  64.7658  47.1865 0175974 243.5113 114.7859 14.89395147289269
FOX-1A (AO-85)          
1 40967U 15058D   25019.52021370  .00009571  00000+0  82377-3 0  9993
2 40967  64.7765  70.3316 0180280 239.3132 119.0106 14.86091299 37091
SINOD-D 1               
1 40968U 15058E   25019.46564726  .00010854  00000+0  87826-3 0  9994
2 40968  64.7767  60.6907 0171864 238.3866 120.0377 14.89245495 39965
SNAP-3 ALICE            
1 40970U 15058G   25019.30276618  .00029655  00000+0  14944-2 0  9999
2 40970  64.7681   1.5959 0122990 237.3304 121.5907 15.10618290 38254
LMRST-SAT               
1 40971U 15058H   25019.50686996  .00008082  00000+0  69693-3 0  9999
2 40971  64.7766  65.9700 0181988 240.7098 117.5718 14.85958259 37096
SNAP-3 EDDIE            
1 40972U 15058J   25019.91714334  .00038176  00000+0  18922-2 0  9998
2 40972  64.7654 352.5450 0123531 238.0271 120.8796 15.11030969 40459
PROPCUBE 3              
1 40973U 15058K   25019.49586279  .00009654  00000+0  78558-3 0  9998
2 40973  64.7705  51.4966 0177463 242.2660 116.0355 14.88461284 38171
BISONSAT                
1 40974U 15058L   25019.59316809  .00022522  00000+0  14179-2 0  9997
2 40974  64.7664  15.6912 0147409 240.3331 118.3042 15.00546793 38127
SNAP-3 JIMI             
1 40975U 15058M   25019.41488584  .00013036  00000+0  95725-3 0  9996
2 40975  64.7685  35.6840 0164954 241.4321 117.0108 14.93420387 37240
PROPCUBE 1 (FLORA)      
1 40976U 15058N   25019.67938267  .00009537  00000+0  85100-3 0  9990
2 40976  64.7753  82.1260 0181186 242.0728 116.1936 14.84661809 39892
SINOD-D 3               
1 40977U 15058P   25019.50971876  .00010882  00000+0  91398-3 0  9997
2 40977  64.7738  73.3661 0172841 241.4512 116.9109 14.87773291 38155
HORYU-4                 
1 41340U 16012D   25019.94175910  .00034194  00000+0  12084-2 0  9992
2 41340  30.9996 351.6702 0005786  32.7514 327.3487 15.27987664491195
RAVAN                   
1 41849U 16067B   25019.73298945  .00027188  00000+0  11226-2 0  9999
2 41849  98.0558 217.6260 0010927  11.1132 349.0343 15.23946205448846
CELTEE 1                
1 41850U 16067C   25019.93063893  .00012577  00000+0  74020-3 0  9993
2 41850  98.1066 207.5899 0001064 133.0716 227.0602 15.11792698448118
OPTICUBE 04             
1 41851U 16067D   25019.55261662  .00005700  00000+0  39699-3 0  9999
2 41851  98.0874 200.2715 0018294  53.1507 307.1393 15.05743856447767
AEROCUBE 8D             
1 41852U 16067E   25019.47835628  .00012366  00000+0  68297-3 0  9992
2 41852  98.1108 207.5900 0005268  94.1600 266.0232 15.14071643448057
AEROCUBE 8C             
1 41853U 16067F   25019.49255050  .00011964  00000+0  65986-3 0  9995
2 41853  98.0945 205.6785 0007533  33.3291 326.8412 15.14117760448049
PROMETHEUS 2-1          
1 41854U 16067G   25019.49489633  .00040835  00000+0  12664-2 0  9995
2 41854  98.0914 217.9013 0009790  30.0365 330.1435 15.33252677448680
PROMETHEUS 2-3          
1 41855U 16067H   25019.50044072  .00040967  00000+0  12739-2 0  9991
2 41855  98.0854 217.1887 0008467  39.0741 321.1109 15.33178188448684
CORVUS BC2              
1 42846U 17042X   25019.48765675  .00005997  00000+0  47153-3 0  9995
2 42846  97.3676 199.0720 0014495  53.7582 306.4980 15.01126462409859
CORVUS BC1              
1 42847U 17042Y   25019.42691440  .00006508  00000+0  50902-3 0  9993
2 42847  97.3698 199.4432 0013802  31.4924 328.7125 15.01300457409869
MIRATA                  
1 43015U 17073C   25019.67939269  .00056500  00000+0  16412-2 0  9990
2 43015  97.5628 270.3486 0119117 230.2632 128.8065 15.28441257389144
MAKERSAT 0              
1 43016U 17073D   25019.90196172  .00028122  00000+0  13015-2 0  9990
2 43016  97.5411 259.8743 0162353 265.4782  92.7886 15.09050169388471
SIRION PATHFINDER-2     
1 43759U 18099B   25019.71667031  .00009229  00000+0  61311-3 0  9999
2 43759  97.4995  76.0888 0008892 269.4524  90.5685 15.07388294335077
CORVUS BC4              
1 43767U 18099K   25019.95096863  .00009825  00000+0  67405-3 0  9995
2 43767  97.4826  72.7573 0008919 333.2618  26.8148 15.06172525334978
MOVE-II                 
1 43780U 18099Y   25019.73053802  .00075482  00000+0  20005-2 0  9998
2 43780  97.4887  89.3521 0003979 301.7760  58.3096 15.38050479335933
SPACEBEE-7              
1 43816U 18099BL  25019.74181828  .00037703  00000+0  15028-2 0  9992
2 43816  97.5178  88.3548 0006725 253.2764 106.7736 15.25087848335252
SHIELDS 1               
1 43850U 18104B   25019.76118022  .00036749  00000+0  64792-3 0  9997
2 43850  85.0208 134.8840 0007796 335.1876  24.9005 15.50212908339564
SONATE                  
1 44400U 19038Q   25019.55971582  .00074454  00000+0  11006-2 0  9995
2 44400  97.7121  32.3144 0012858  56.1035 304.1439 15.54978121307447
DUCHIFAT-3              
1 44854U 19089C   25019.73022259  .00048288  00000+0  15327-2 0  9998
2 44854  36.9481 160.7918 0009600 102.8006 257.3819 15.31655331281304
M2 PATHFINDER           
1 45727U 20037E   25019.44931990  .00006835  00000+0  54852-3 0  9991
2 45727  97.7844 201.3596 0013143  97.3072 262.9646 15.00332211248335
NETSAT-4                
1 46504U 20068U   25019.90055948  .00024545  00000+0  10092-2 0  9995
2 46504  97.8323 350.5613 0007752 350.0823  10.0259 15.24134667237073
NETSAT-3                
1 46505U 20068V   25019.84672644  .00021197  00000+0  89582-3 0  9998
2 46505  97.8312 349.7301 0007812   0.8309 359.2938 15.23237356237049
NETSAT-1                
1 46506U 20068W   25019.84705560  .00017242  00000+0  80609-3 0  9990
2 46506  97.8334 348.4384 0007574  13.2506 346.8925 15.19829243236957
NETSAT-2                
1 46507U 20068X   25019.86296387  .00023660  00000+0  97904-3 0  9992
2 46507  97.8312 350.0851 0006848  19.4517 340.6979 15.23933210237019
WILDTRACKCUBE-SIMBA     
1 47941U 21022K   25019.91451213  .00035772  00000+0  10639-2 0  9999
2 47941  97.4382 282.2734 0014220  95.4072 264.8794 15.34553961211549
GRBALPHA                
1 47959U 21022AD  25019.89643372  .00088090  00000+0  16425-2 0  9994
2 47959  97.4368 286.6873 0012025  81.6821 278.5793 15.48420321210654
BEESAT-8                
1 48085U 21022AP  25019.49364904  .01274248  84768-3  27039-2 0  9995
2 48085  97.4822 295.1549 0009909  93.5688 266.6722 15.98842529211367
LEDSAT                  
1 49069U 21073D   25019.70462540  .00049884  00000+0  11755-2 0  9999
2 49069  97.4091  97.3762 0013091 230.2279 129.7815 15.41677264189603
ROBUSTA-1F (MTCUBE 2)   
1 53109U 22080E   25019.27317400 -.00000003  00000+0  00000+0 0  9993
2 53109  70.1272 116.9864 0008349  39.2651 320.8613  6.42583861 59048
SITRO-AIS 5 (KATYS)     
1 57176U 23091L   25019.93529692  .00016413  00000+0  86582-3 0  9999
2 57176  97.5820  76.9062 0016857  97.0876 263.2273 15.15507655 86248
SITRO-AIS 6 (CHIRKIN)   
1 57192U 23091AC  25019.91609627  .00016844  00000+0  88984-3 0  9998
2 57192  97.5815  76.9161 0016591  96.9701 263.3419 15.15454472 86241
